0 FENGYUN 1C DEB
1 30923U 99025AZM 13281.43085110  .00003347  00000-0  18537-2 0  5246
2 30923 098.8842 250.3425 0043202 053.3219 071.6866 14.11480658337457
0 FENGYUN 1C DEB
1 30923U 99025AZM 13282.83663174  .00004355  00000-0  24034-2 0  5253
2 30923 098.8841 251.7343 0043269 049.6388 014.6691 14.11495472337653
0 FENGYUN 1C DEB
1 30923U 99025AZM 13284.19451661  .00005045  00000-0  27800-2 0  5262
2 30923 098.8839 253.0786 0043213 045.9610 074.4743 14.11505559337843
0 FENGYUN 1C DEB
1 30923U 99025AZM 13285.47114348  .00004309  00000-0  23778-2 0  5275
2 30923 098.8836 254.3425 0043166 042.5027 081.4272 14.11516549338023
0 FENGYUN 1C DEB
1 30923U 99025AZM 13286.59148201  .00004668  00000-0  25730-2 0  5283
2 30923 098.8833 255.4517 0043139 039.4897 014.2503 14.11524372338185
0 FENGYUN 1C DEB
1 30923U 99025AZM 13288.16559184  .00007602  00000-0  41723-2 0  5296
2 30923 098.8827 257.0100 0043166 035.2629 092.8969 14.11541532338401
0 FENGYUN 1C DEB
1 30923U 99025AZM 13289.85304552  .00006556  00000-0  36007-2 0  5308
2 30923 098.8834 258.6805 0043203 030.7508 027.5815 14.11560103338642
0 FENGYUN 1C DEB
1 30923U 99025AZM 13291.14300138  .00005468  00000-0  30068-2 0  5312
2 30923 098.8837 259.9573 0043225 027.3211 102.4632 14.11574718338825
0 FENGYUN 1C DEB
1 30923U 99025AZM 13292.20553263  .00005064  00000-0  27861-2 0  5329
2 30923 098.8842 261.0093 0043203 024.5707 101.6646 14.11584486338972
0 FENGYUN 1C DEB
1 30923U 99025AZM 13293.60998936  .00006108  00000-0  33545-2 0  5331
2 30923 098.8845 262.3999 0043103 020.8082 038.5373 14.11598885339174
0 FENGYUN 1C DEB
1 30923U 99025AZM 13295.18168942  .00006738  00000-0  36967-2 0  5343
2 30923 098.8847 263.9560 0042981 016.4875 105.4663 14.11613383339392
